ORBCOMM FM33            
1 25983U 99065D   24163.70610640  .00002062  00000+0  72423-3 0  9996
2 25983  45.0296 317.4677 0007455 352.5182   7.5555 14.37833027282701
ORBCOMM FM36            
1 25984U 99065E   24164.00172630  .00002378  00000+0  86364-3 0  9992
2 25984  45.0409  42.1206 0003032 239.3676 120.6873 14.35737085281170
ORBCOMM FM34            
1 25986U 99065G   24164.02480166  .00001506  00000+0  57024-3 0  9995
2 25986  45.0400  45.3115 0003625 294.4746  65.5723 14.35246217281684
ORBCOMM FM38            
1 33060U 08031A   24164.02384528  .00003063  00000+0  45074-3 0  9997
2 33060  48.4409 274.7215 0006362 256.2899 103.7307 14.77783311859936
ORBCOMM FM29            
1 33062U 08031C   24164.09730337  .00003233  00000+0  47773-3 0  9996
2 33062  48.4400 289.1078 0007274 241.2749 288.9519 14.77453226859353
ORBCOMM FM39            
1 33063U 08031D   24163.71475987  .00003507  00000+0  52809-3 0  9992
2 33063  48.4417 311.6827 0007939 215.1890 144.8500 14.76417697858990
